OBJECT_NAME,OBJECT_ID,EPOCH,MEAN_MOTION,ECCENTRICITY,INCLINATION,RA_OF_ASC_NODE,ARG_OF_PERICENTER,MEAN_ANOMALY,EPHEMERIS_TYPE,CLASSIFICATION_TYPE,NORAD_CAT_ID,ELEMENT_SET_NO,REV_AT_EPOCH,BSTAR,MEAN_MOTION_DOT,MEAN_MOTION_DDOT
INTELSAT 23 (IS-23),2012-057A,2026-06-28T20:45:41.704992,1.00275947,.00004636,0.0152,44.2822,77.8587,53.2361,0,U,38867,999,5007,0,-.273E-5,0
FM-6,2013-058A,2026-06-28T17:02:25.174176,1.00270113,.00016478,0.0186,47.5848,134.1485,234.3643,0,U,39360,999,4618,0,-.4E-7,0
INTELSAT 30 (IS-30),2014-062A,2026-06-28T16:25:12.652608,1.00270773,.0001725,0.0209,45.2858,346.1200,36.6237,0,U,40271,999,690,0,-.139E-5,0
DIRECTV 14,2014-078B,2026-06-28T22:15:08.619840,1.00270917,.00002118,0.0132,34.6968,28.5231,88.3403,0,U,40333,999,4216,0,-.114E-5,0
DIRECTV 15,2015-026A,2026-06-28T22:14:08.715264,1.00273103,.00004361,0.0147,55.8050,357.6772,94.2008,0,U,40663,999,4058,0,-.91E-6,0
SKY MEXICO-1,2015-026B,2026-06-28T22:21:00.557280,1.00269217,.00026634,0.0286,27.3530,89.1430,56.9844,0,U,40664,999,4057,0,0,0
INTELSAT 34 (IS-34),2015-039A,2026-06-28T16:27:19.797984,1.00271838,.00006891,0.0117,356.8645,30.4825,80.7691,0,U,40874,999,3975,0,-.274E-5,0
INTELSAT 31 (IS-31),2016-035A,2026-06-28T22:16:23.500128,1.00270901,.00006174,0.0204,277.9646,359.9277,238.1722,0,U,41581,999,3680,0,-.139E-5,0
INTELSAT 36 (IS-36),2016-053A,2026-06-28T21:02:38.611392,1.00267413,.0001869,0.0093,7.1095,338.4148,315.6097,0,U,41747,999,3607,0,-.12E-6,0
INTELSAT 32E (IS-32E),2017-007B,2026-06-28T17:23:12.280416,1.00269366,.00007684,0.0253,13.9692,345.2204,135.2569,0,U,41945,999,3434,0,0,0
INTELSAT 35E (IS-35E),2017-041A,2026-06-28T15:42:55.284192,1.00270796,.00023672,0.0048,94.5966,3.5797,19.8051,0,U,42818,999,3293,0,-.227E-5,0
INTELSAT 37E (IS-37E),2017-059A,2026-06-28T20:55:40.488960,1.00269014,.00029093,0.0247,17.1245,84.0079,111.7491,0,U,42950,999,3218,0,0,0
AZERSPACE 2 (IS-38),2018-074A,2026-06-28T22:56:19.295232,1.00269377,.00017171,0.0251,13.4747,85.7116,207.0523,0,U,43632,999,2856,0,0,0
HORIZONS-3E,2018-074B,2026-06-28T14:59:20.327712,1.00271069,.00004359,0.0211,191.0210,96.3678,23.1753,0,U,43633,999,2845,0,-.19E-6,0
AT&T T-16,2019-034A,2026-06-28T15:24:04.590720,1.00271064,.00007327,0.0136,53.4567,291.8967,61.5474,0,U,44333,999,2574,0,-.104E-5,0
INTELSAT 39 (IS-39),2019-049B,2026-06-28T23:01:11.328096,1.00269275,.00008998,0.0250,11.9936,339.7199,332.5860,0,U,44476,999,2524,0,0,0
GALAXY 30 (G-30),2020-056C,2026-06-28T16:59:55.413600,1.00272339,.00022835,0.0188,23.4960,71.7515,311.5176,0,U,46114,999,2140,0,.48E-6,0
GALAXY 33 (G-33),2022-128A,2026-06-28T18:28:20.999136,1.00272199,.00020827,0.0143,355.9999,98.3263,326.6212,0,U,54026,999,1385,0,.9E-6,0
GALAXY 34 (G-34),2022-128B,2026-06-28T16:58:40.533312,1.00274831,.0001975,0.0267,359.9068,106.1885,296.3759,0,U,54027,999,1402,0,0,0
GALAXY 31 (G-31),2022-153A,2026-06-28T18:32:18.305376,1.00270265,.00016382,0.0228,42.3796,52.7564,338.7992,0,U,54243,999,724,0,0,0
GALAXY 32 (G-32),2022-153B,2026-06-28T16:39:41.019264,1.00270635,.00020143,0.0113,11.5139,37.2507,26.9432,0,U,54244,999,1325,0,-.163E-5,0
GALAXY 35 (G-35),2022-170A,2026-06-28T22:16:53.452416,1.00269099,.00022056,0.0218,32.6861,65.2680,60.1742,0,U,54741,999,1301,0,0,0
GALAXY 36 (G-36),2022-170B,2026-06-28T22:18:08.331840,1.00271383,.00029018,0.0162,270.1545,181.1496,71.2493,0,U,54742,999,1289,0,-.174E-5,0
GALAXY 37 (G-37),2023-112A,2026-06-28T15:16:42.797280,1.00272418,.00022648,0.0195,61.1818,33.9743,283.7544,0,U,57493,999,1065,0,.59E-6,0
